[{"OBJECT_NAME":"STARLINK-5984","OBJECT_ID":"2023-058N","EPOCH":"2026-03-09T22:10:52.604544","MEAN_MOTION":15.05648411,"ECCENTRICITY":0.00018782,"INCLINATION":97.604,"RA_OF_ASC_NODE":71.4743,"ARG_OF_PERICENTER":71.1743,"MEAN_ANOMALY":288.9687,"EPHEMERIS_TYPE":0,"CLASSIFICATION_TYPE":"U","NORAD_CAT_ID":56329,"ELEMENT_SET_NO":999,"REV_AT_EPOCH":15823,"BSTAR":0.00013117499,"MEAN_MOTION_DOT":1.832e-5,"MEAN_MOTION_DDOT":0},{"OBJECT_NAME":"COSMOS 886 DEB","OBJECT_ID":"1976-126BC","EPOCH":"2026-03-09T23:00:40.110048","MEAN_MOTION":13.88993613,"ECCENTRICITY":0.05615405,"INCLINATION":65.7639,"RA_OF_ASC_NODE":244.6412,"ARG_OF_PERICENTER":232.9023,"MEAN_ANOMALY":121.9468,"EPHEMERIS_TYPE":0,"CLASSIFICATION_TYPE":"U","NORAD_CAT_ID":9962,"ELEMENT_SET_NO":999,"REV_AT_EPOCH":38225,"BSTAR":0.00180306,"MEAN_MOTION_DOT":7.881e-5,"MEAN_MOTION_DDOT":0}]
